NORAD_CAT_ID,OBJECT_NAME,OBJECT_TYPE,EPOCH,MEAN_MOTION,ECCENTRICITY,INCLINATION,RA_OF_ASC_NODE,ARG_OF_PERICENTER,MEAN_ANOMALY,BSTAR,MEAN_MOTION_DOT,MEAN_MOTION_DDOT,TLE_LINE0,TLE_LINE1,TLE_LINE2,SEMIMAJOR_AXIS,PERIOD,APOGEE,PERIGEE,DECAYED
53974.0,STARLINK-5159,PAYLOAD,2024-05-19 02:30:50,15.0883914,0.0001893,53.2161,284.7158,80.4268,279.6938,6.5693e-05,7.57e-06,0.0,0 STARLINK-5159,1 53974U 22125L   24140.10475031  .00000757  00000-0  65693-4 0  9994,2 53974  53.2161 284.7158 0001893  80.4268 279.6938 15.08839140 90105,6917.883,95.438,541.058,538.438,0.0
53974.0,STARLINK-5159,PAYLOAD,2024-05-19 13:38:32,15.08835467,0.0001873,53.2175,282.6353,97.3838,262.7367,3.3044e-06,-2.36e-06,0.0,0 STARLINK-5159,1 53974U 22125L   24140.56842901 -.00000236  00000-0  33044-5 0  9997,2 53974  53.2175 282.6353 0001873  97.3838 262.7367 15.08835467 90109,6917.894,95.438,541.055,538.464,0.0
53974.0,STARLINK-5159,PAYLOAD,2024-05-19 20:00:04,15.08846909,0.0001496,53.2162,281.4442,101.8577,258.2583,0.00011926,1.611e-05,0.0,0 STARLINK-5159,1 53974U 22125L   24140.83338253  .00001611  00000-0  11926-3 0  9997,2 53974  53.2162 281.4442 0001496 101.8577 258.2583 15.08846909 90218,6917.859,95.437,540.759,538.689,0.0
53974.0,STARLINK-5159,PAYLOAD,2024-05-20 13:29:18,15.08840113,8.9e-05,53.2169,278.1719,98.2183,261.8911,-0.00011479,-2.114e-05,0.0,0 STARLINK-5159,1 53974U 22125L   24141.56202175 -.00002114  00000-0 -11479-3 0  9995,2 53974  53.2169 278.1719 0000890  98.2183 261.8911 15.08840113 90254,6917.88,95.438,540.361,539.129,0.0
53974.0,STARLINK-5159,PAYLOAD,2024-05-21 13:20:06,15.08832053,0.0001304,53.2169,273.711,101.4857,258.6281,6.6993e-05,7.78e-06,0.0,0 STARLINK-5159,1 53974U 22125L   24142.55562803  .00000778  00000-0  66993-4 0  9996,2 53974  53.2169 273.7110 0001304 101.4857 258.6281 15.08832053 90478,6917.905,95.438,540.672,538.868,0.0
53974.0,STARLINK-5159,PAYLOAD,2024-05-21 14:55:29,15.08835427,0.0001201,53.2182,273.4141,95.9937,264.1192,5.2877e-05,5.54e-06,0.0,0 STARLINK-5159,1 53974U 22125L   24142.62186893  .00000554  00000-0  52877-4 0  9993,2 53974  53.2182 273.4141 0001201  95.9937 264.1192 15.08835427 90411,6917.894,95.438,540.59,538.929,0.0
53974.0,STARLINK-5159,PAYLOAD,2024-05-21 16:30:52,15.08835126,9.49e-05,53.2166,273.1185,96.4208,263.6892,2.2976e-05,7.8e-07,0.0,0 STARLINK-5159,1 53974U 22125L   24142.68810835  .00000078  00000-0  22976-4 0  9997,2 53974  53.2166 273.1185 0000949  96.4208 263.6892 15.08835126 90421,6917.895,95.438,540.417,539.104,0.0
53974.0,STARLINK-5159,PAYLOAD,2024-05-23 13:01:41,15.08840504,0.0001324,53.2175,264.7975,54.9382,305.1734,0.00011631,1.564e-05,0.0,0 STARLINK-5159,1 53974U 22125L   24144.54283812  .00001564  00000-0  11631-3 0  9999,2 53974  53.2175 264.7975 0001324  54.9382 305.1734 15.08840504 90775,6917.879,95.438,540.66,538.828,0.0
53974.0,STARLINK-5159,PAYLOAD,2024-05-23 14:37:04,15.08846064,0.0001454,53.2176,264.4928,51.7325,308.3797,0.00016616,2.358e-05,0.0,0 STARLINK-5159,1 53974U 22125L   24144.60907532  .00002358  00000-0  16616-3 0  9998,2 53974  53.2176 264.4928 0001454  51.7325 308.3797 15.08846064 90712,6917.862,95.437,540.733,538.721,0.0
53974.0,STARLINK-5159,PAYLOAD,2024-05-24 12:52:27,15.08851804,0.0001233,53.2174,260.3327,87.8437,272.2697,0.00017345,2.475e-05,0.0,0 STARLINK-5159,1 53974U 22125L   24145.53643054  .00002475  00000-0  17345-3 0  9997,2 53974  53.2174 260.3327 0001233  87.8437 272.2697 15.08851804 90926,6917.844,95.437,540.562,538.856,0.0
53974.0,STARLINK-5159,PAYLOAD,2024-05-24 14:27:50,15.08862261,0.0001087,53.2167,260.0332,97.4346,262.677,0.0002531,3.745e-05,0.0,0 STARLINK-5159,1 53974U 22125L   24145.60266570  .00003745  00000-0  25310-3 0  9991,2 53974  53.2167 260.0332 0001087  97.4346 262.6770 15.08862261 90861,6917.812,95.436,540.429,538.925,0.0
53974.0,STARLINK-5159,PAYLOAD,2024-05-24 17:38:36,15.08861418,0.0001137,53.2167,259.4368,96.2029,263.9092,0.0002409,3.55e-05,0.0,0 STARLINK-5159,1 53974U 22125L   24145.73514396  .00003550  00000-0  24090-3 0  9995,2 53974  53.2167 259.4368 0001137  96.2029 263.9092 15.08861418 90957,6917.815,95.436,540.466,538.893,0.0
53974.0,STARLINK-5159,PAYLOAD,2024-05-25 12:43:15,15.08835716,0.00012,53.2168,255.8701,105.3471,254.7654,-9.0152e-05,-1.722e-05,0.0,0 STARLINK-5159,1 53974U 22125L   24146.53003569 -.00001722  00000-0 -90152-4 0  9993,2 53974  53.2168 255.8701 0001200 105.3471 254.7654 15.08835716 91071,6917.893,95.438,540.589,538.928,0.0
53974.0,STARLINK-5159,PAYLOAD,2024-05-25 14:18:38,15.08838873,0.0001017,53.217,255.5769,100.8342,259.2765,-8.0332e-05,-1.566e-05,0.0,0 STARLINK-5159,1 53974U 22125L   24146.59627411 -.00001566  00000-0 -80332-4 0  9992,2 53974  53.2170 255.5769 0001017 100.8342 259.2765 15.08838873 91012,6917.884,95.438,540.452,539.045,0.0
53974.0,STARLINK-5159,PAYLOAD,2024-05-25 23:50:56,15.08841831,9.68e-05,53.2166,253.7914,101.0532,259.0569,-1.9672e-05,-6.01e-06,0.0,0 STARLINK-5159,1 53974U 22125L   24146.99371188 -.00000601  00000-0 -19672-4 0  9991,2 53974  53.2166 253.7914 0000968 101.0532 259.0569 15.08841831 91149,6917.875,95.437,540.409,539.07,0.0
53974.0,STARLINK-5159,PAYLOAD,2024-05-26 12:34:01,15.0884676,0.0001054,53.2164,251.4124,107.145,252.9657,-0.00012459,-2.27e-05,0.0,0 STARLINK-5159,1 53974U 22125L   24147.52363135 -.00002270  00000-0 -12459-3 0  9993,2 53974  53.2164 251.4124 0001054 107.1450 252.9657 15.08846760 91155,6917.86,95.437,540.454,538.996,0.0
53974.0,STARLINK-5159,PAYLOAD,2024-05-27 12:24:49,15.08836867,0.0001136,53.2167,246.9533,111.1374,248.9739,0.00011492,1.541e-05,0.0,0 STARLINK-5159,1 53974U 22125L   24148.51723963  .00001541  00000-0  11492-3 0  9996,2 53974  53.2167 246.9533 0001136 111.1374 248.9739 15.08836867 91379,6917.89,95.438,540.541,538.969,0.0
53974.0,STARLINK-5159,PAYLOAD,2024-05-27 14:00:12,15.08839269,0.0001026,53.2164,246.6562,102.3745,257.7363,0.00014414,2.007e-05,0.0,0 STARLINK-5159,1 53974U 22125L   24148.58347886  .00002007  00000-0  14414-3 0  9994,2 53974  53.2164 246.6562 0001026 102.3745 257.7363 15.08839269 91311,6917.883,95.438,540.457,539.038,0.0
53974.0,STARLINK-5159,PAYLOAD,2024-05-27 15:35:35,15.08840027,0.0001043,53.2165,246.3586,103.8585,256.2523,0.00015076,2.112e-05,0.0,0 STARLINK-5159,1 53974U 22125L   24148.64971854  .00002112  00000-0  15076-3 0  9991,2 53974  53.2165 246.3586 0001043 103.8585 256.2523 15.08840027 91329,6917.88,95.438,540.467,539.024,0.0
53974.0,STARLINK-5159,PAYLOAD,2024-05-28 13:50:59,15.08847675,0.000105,53.2161,242.1954,86.6951,273.4161,0.00020057,2.906e-05,0.0,0 STARLINK-5159,1 53974U 22125L   24149.57707504  .00002906  00000-0  20057-3 0  9999,2 53974  53.2161 242.1954 0001050  86.6951 273.4161 15.08847675 91461,6917.857,95.437,540.448,538.996,0.0
53974.0,STARLINK-5159,PAYLOAD,2024-05-29 12:06:23,15.08841438,0.0001299,53.216,238.0337,65.1869,294.9258,2.7666e-05,1.52e-06,0.0,0 STARLINK-5159,1 53974U 22125L   24150.50443940  .00000152  00000-0  27666-4 0  9990,2 53974  53.2160 238.0337 0001299  65.1869 294.9258 15.08841438 91673,6917.876,95.437,540.64,538.842,0.0
53974.0,STARLINK-5159,PAYLOAD,2024-05-29 15:17:09,15.08847123,0.0001061,53.2176,237.4356,85.4361,274.6753,0.00010387,1.366e-05,0.0,0 STARLINK-5159,1 53974U 22125L   24150.63691581  .00001366  00000-0  10387-3 0  9999,2 53974  53.2176 237.4356 0001061  85.4361 274.6753 15.08847123 91620,6917.859,95.437,540.458,538.99,0.0
53974.0,STARLINK-5159,PAYLOAD,2024-05-30 11:57:09,15.08853647,9.74e-05,53.2174,233.5688,110.359,249.7507,5.8996e-05,6.52e-06,0.0,0 STARLINK-5159,1 53974U 22125L   24151.49803146  .00000652  00000-0  58996-4 0  9992,2 53974  53.2174 233.5688 0000974 110.3590 249.7507 15.08853647 91759,6917.839,95.437,540.377,539.03,0.0
53974.0,STARLINK-5159,PAYLOAD,2024-05-31 05:26:24,15.08840994,0.0001262,53.2184,230.2995,102.0087,258.1046,0.00010674,1.411e-05,0.0,0 STARLINK-5159,1 53974U 22125L   24152.22667815  .00001411  00000-0  10674-3 0  9999,2 53974  53.2184 230.2995 0001262 102.0087 258.1046 15.08840994 91938,6917.877,95.437,540.615,538.869,0.0
53974.0,STARLINK-5159,PAYLOAD,2024-05-31 11:47:57,15.08847553,0.0001137,53.2171,229.112,93.3313,266.7809,0.00010768,1.427e-05,0.0,0 STARLINK-5159,1 53974U 22125L   24152.49163429  .00001427  00000-0  10768-3 0  9991,2 53974  53.2171 229.1120 0001137  93.3313 266.7809 15.08847553 91903,6917.857,95.437,540.509,538.936,0.0
53974.0,STARLINK-5159,PAYLOAD,2024-05-31 14:58:43,15.08850716,0.0001072,53.2163,228.5154,92.1953,267.9162,0.00012429,1.691e-05,0.0,0 STARLINK-5159,1 53974U 22125L   24152.62411130  .00001691  00000-0  12429-3 0  9990,2 53974  53.2163 228.5154 0001072  92.1953 267.9162 15.08850716 91998,6917.848,95.437,540.454,538.971,0.0
53974.0,STARLINK-5159,PAYLOAD,2024-06-01 05:17:12,15.08834051,0.0001159,53.2177,225.8381,94.8989,265.2135,-1.3268e-05,-4.99e-06,0.0,0 STARLINK-5159,1 53974U 22125L   24153.22028747 -.00000499  00000-0 -13268-4 0  9995,2 53974  53.2177 225.8381 0001159  94.8989 265.2135 15.08834051 92085,6917.899,95.438,540.565,538.962,0.0
53974.0,STARLINK-5159,PAYLOAD,2024-06-01 11:38:45,15.08834615,0.0001174,53.2169,224.6493,90.585,269.5277,1.2234e-06,-2.68e-06,0.0,0 STARLINK-5159,1 53974U 22125L   24153.48524765 -.00000268  00000-0  12234-5 0  9990,2 53974  53.2169 224.6493 0001174  90.5850 269.5277 15.08834615 92051,6917.897,95.438,540.574,538.95,0.0
53974.0,STARLINK-5159,PAYLOAD,2024-06-02 05:07:59,15.0884018,0.0001262,53.2163,221.3778,94.4192,265.6944,8.7473e-05,1.105e-05,0.0,0 STARLINK-5159,1 53974U 22125L   24154.21388352  .00001105  00000-0  87473-4 0  9998,2 53974  53.2163 221.3778 0001262  94.4192 265.6944 15.08840180 92237,6917.88,95.438,540.618,538.872,0.0
53974.0,STARLINK-5159,PAYLOAD,2024-06-02 11:29:31,15.08846984,0.000128,53.2159,220.1897,92.3554,267.7585,0.00019855,2.874e-05,0.0,0 STARLINK-5159,1 53974U 22125L   24154.47884010  .00002874  00000-0  19855-3 0  9990,2 53974  53.2159 220.1897 0001280  92.3554 267.7585 15.08846984 92209,6917.859,95.437,540.61,538.839,0.0
